#aV2011  2 11  0  0   .00000000      96 DD+AD WGS84 FIT  NGA
## 1622 432000.00000000   900.00000000 55603  .0000000000000
+   32     1  2  3  4  5  6  7  8  9 10 11 12 13 14 15 16 17
+         18 19 20 21 22 23 24 25 26 27 28 29 30 31 32  0  0
+          0  0  0  0  0  0  0  0  0  0  0  0  0  0  0  0  0
+          0  0  0  0  0  0  0  0  0  0  0  0  0  0  0  0  0
+          0  0  0  0  0  0  0  0  0  0  0  0  0  0  0  0  0
++         0  0  0  0  0  0  0  0  0  0  0  0  0  0  0  0  0
++         0  0  0  0  0  0  0  0  0  0  0  0  0  0  0  0  0
++         0  0  0  0  0  0  0  0  0  0  0  0  0  0  0  0  0
++         0  0  0  0  0  0  0  0  0  0  0  0  0  0  0  0  0
++         0  0  0  0  0  0  0  0  0  0  0  0  0  0  0  0  0
%c cc cc ccc ccc cccc cccc cccc cccc ccccc ccccc ccccc ccccc
%c cc cc ccc ccc cccc cccc cccc cccc ccccc ccccc ccccc ccccc
%f  0.0000000  0.000000000  0.00000000000  0.000000000000000
%f  0.0000000  0.000000000  0.00000000000  0.000000000000000
%i    0    0    0    0      0      0      0      0         0
%i    0    0    0    0      0      0      0      0         0
/*      NGA, ST. LOUIS,MO.                                  
/*   EPHEMERIS COMPUTED FROM  3 DAYS OF DATA                
/* CCCCCCCCCCCCCCCCCCCCCCCCCCCCCCCCCCCCCCCCCCCCCCCCCCCCCCCCC
/* CCCCCCCCCCCCCCCCCCCCCCCCCCCCCCCCCCCCCCCCCCCCCCCCCCCCCCCCC
*  2011  2 11  7  0   .00000000                                                 
P  1  25429.202237   6564.837073  -4536.442846   -207.451656                    
V  1  -5867.582452   1657.224683 -31126.742933      -.030146                    
P  2 -19829.115748   7187.095916 -15829.662477    319.729224                    
V  2  10073.227591 -17928.385190 -21212.558025       .020779                    
P  3  16476.674231  -1847.890586  20397.440975    674.501056                    
V  3  12492.515477  23829.157643  -7458.194123       .049743                    
P  4 -16152.670542  -4199.540841 -20927.194555     32.580497                    
V  4  15479.272836 -21056.231739  -7447.648102       .102048                    
P  5 -25121.091888   2619.883916   8364.846198   -112.945673                    
V  5 -10179.339580  -4076.890265 -29117.898561      -.059391                    
P  6  17621.562615   3052.741885  19856.212164    -70.793889                    
V  6   9508.346453  23043.175946 -11877.609784      -.216275                    
P  7    714.046446 -20014.562026  17348.410978      3.419164                    
V  7  14870.116578 -16376.986400 -19706.284161       .007430                    
P  8  -8376.310850 -12083.541100  22089.182818      7.341060                    
V  8  19166.205714 -20373.735207  -4407.220897       .000146                    
P  9 -14747.855648  22041.470232  -1843.135353     61.083681                    
V  9  -2686.377778     96.623014  32134.618924       .024117                    
P 10 -24673.881471  -8416.098783  -6232.669793    -65.898957                    
V 10   7902.737454  -1472.954407 -29956.636731      -.010757                    
P 11  10870.010559 -24011.086086    492.038170   -126.294134                    
V 11   4546.583987   3061.586267  30268.440640      -.030287                    
P 12 -13241.758315  11615.118631 -19795.914456    -27.921185                    
V 12 -24771.237489  -4870.011448  13851.013264       .032771                    
P 13  -4726.649679 -25633.725346  -5107.083209    282.841651                    
V 13   3664.077833   5435.528873 -31573.745954      -.013509                    
P 14  14567.368179  19146.812038 -11242.459167    130.537030                    
V 14   3101.786581  14204.696899  27693.647947       .027587                    
P 15  -7285.352188  17136.168078  18891.974205   -152.562474                    
V 15 -10984.536304 -21452.049357  15389.251879       .035187                    
P 16  26117.996516    531.898590   5634.582222   -149.766617                    
V 16   6604.302967   3192.973845 -30810.154354      -.029520                    
P 17 -14799.948140 -19848.106959  -9794.535766    182.950990                    
V 17  -2218.456899 -12570.296425  28239.542479       .004293                    
P 18  11405.637684  15682.028232  18603.875058    120.887893                    
V 18 -22946.607414  -1946.643902  15594.419026       .020565                    
P 19  11040.674479 -12711.671027  20463.093638   -110.079040                    
V 19   8942.297882  24515.834591  10735.945794      -.036491                    
P 20   7880.798865 -14688.523980 -20815.624664     48.675796                    
V 20  25993.145240   3477.570928   7507.170018      -.000318                    
P 21   1042.702754  19868.170398  17675.143891   -123.130021                    
V 21 -15518.913229  15823.312365 -17868.855335      -.026955                    
P 22  21349.617921  11638.480122  10965.461782    153.496008                    
V 22 -14022.743569    909.489846  26642.224021      -.006637                    
P 23   2954.257289 -21313.230914 -15346.577976    326.698629                    
V 23   9197.980359  17446.482177 -22788.935302      -.023581                    
P 24  14701.037912 -21551.843364  -4092.092654    364.450549                    
V 24   6039.639417  -1814.028000  31074.631566       .032903                    
P 25   3130.409822  15406.978999 -21421.371225    -67.745027                    
V 25 -27026.440016  -2766.235196  -5934.737178      -.015105                    
P 26 -14076.013201   3025.329819  21755.035170   -118.414801                    
V 26  -9032.513587 -27501.108243  -1564.836212      -.095703                    
P 27 -17906.160721  18685.027773   5914.174452    235.637025                    
V 27   1982.714685  -6774.229494  31201.263404       .036281                    
P 28 -18537.564412 -13226.217444  14404.879329     19.380817                    
V 28  17289.751887   1506.426864  24250.581776       .020671                    
P 29   3665.273914  25197.899769  -7540.676564    184.512145                    
V 29  -5787.424186  -8178.595799 -29784.361964       .029744                    
P 30  26240.857547   3876.288463  -2066.906314    320.950511                    
V 30  -2382.734421   2609.159795 -31554.869330       .030457                    
P 31  16495.900541   1422.933133 -20603.079531     40.242653                    
V 31 -15843.233427  21309.555387 -10900.264840       .045213                    
P 32  16834.264255  -9176.287966 -17913.505531   -193.980011                    
V 32  22500.784787   7070.740547  17635.634719      -.078559                    
EOF
